# 2018  6  6 11 44  7.580000  50.257 12.4459 9.77  2.2  0.0 0.0 0.0   201871472
NKC     1.8560  1.0  P
NKC     3.0680  1.0  S
STC     1.9840  1.0  P
STC     3.2520  1.0  S
VAC     1.9800  1.0  P
VAC     3.2880  1.0  S
POC     2.1840  1.0  P
POC     3.7320  1.0  S
SKC     2.6440  1.0  P
SKC     4.4480  1.0  S
LBC     1.8640  1.0  P
LBC     3.1520  1.0  S
KVC     2.2000  1.0  P
KVC     3.6200  1.0  S
KRC     2.4320  1.0  P
KRC     4.0800  1.0  S
ZHC     4.3360  1.0  P
ZHC     7.2240  1.0  S
TRC     4.0880  1.0  P
TRC     6.7800  1.0  S
KOC     3.0680  1.0  P
KOC     5.1160  1.0  S
LAC     4.9920  1.0  P
LAC     8.4640  1.0  S
# 2018  5 22 10 27 28.220000  50.2372 12.4584 6.429  2.9  0.0 0.0 0.0   201859387
NKC     1.3160  1.0  P
NKC     2.1520  1.0  S
STC     1.5440  1.0  P
STC     2.4720  1.0  S
VAC     1.6480  1.0  P
VAC     2.6800  1.0  S
POC     2.1680  1.0  P
POC     3.5440  1.0  S
SKC     2.2520  1.0  P
SKC     3.7480  1.0  S
LBC     1.5720  1.0  P
LBC     2.6440  1.0  S
KVC     1.5760  1.0  P
KVC     2.5560  1.0  S
KRC     2.3960  1.0  P
KRC     3.9080  1.0  S
HUC     3.4200  1.0  P
HUC     5.7120  1.0  S
MAC     2.5600  1.0  P
MAC     4.2360  1.0  S
ZHC     4.0160  1.0  P
ZHC     6.6600  1.0  S
TRC     4.2960  1.0  P
TRC     7.1480  1.0  S
KOC     3.1200  1.0  P
KOC     5.1120  1.0  S
LAC     4.5280  1.0  P
LAC     7.5600  1.0  S
# 2018  5 21 21 10 41.540000  50.2324 12.454 7.264  2.6  0.0 0.0 0.0   201856153
NKC     1.4280  1.0  P
NKC     2.3440  1.0  S
STC     1.6720  1.0  P
STC     2.7400  1.0  S
VAC     1.7080  1.0  P
VAC     2.7880  1.0  S
POC     2.2680  1.0  P
POC     3.7680  1.0  S
SKC     2.2240  1.0  P
SKC     3.7160  1.0  S
LBC     1.6640  1.0  P
LBC     2.8120  1.0  S
KVC     1.6720  1.0  P
KVC     2.6920  1.0  S
KRC     2.5160  1.0  P
KRC     4.2200  1.0  S
ZHC     3.9560  1.0  P
ZHC     6.5600  1.0  S
TRC     4.2920  1.0  P
TRC     7.1520  1.0  S
KOC     3.1200  1.0  P
KOC     5.1800  1.0  S
LAC     4.5200  1.0  P
LAC     7.6040  1.0  S
# 2018  5 16 10 42 12.540000  50.1559 12.4659 9.175  2.7  0.0 0.0 0.0   201847435
NKC     2.3320  1.0  P
NKC     3.9360  1.0  S
STC     2.6960  1.0  P
STC     4.5280  1.0  S
VAC     2.5720  1.0  P
VAC     4.3280  1.0  S
POC     3.6760  1.0  P
POC     6.1160  1.0  S
SKC     2.1400  1.0  P
SKC     3.6280  1.0  S
LBC     2.8560  1.0  P
LBC     4.8840  1.0  S
KVC     2.0280  1.0  P
KVC     3.4120  1.0  S
KRC     3.8000  1.0  P
KRC     6.4280  1.0  S
HUC     2.5880  1.0  P
HUC     4.3240  1.0  S
MAC     1.9960  1.0  P
MAC     3.3720  1.0  S
ZHC     3.0440  1.0  P
ZHC     5.0720  1.0  S
TRC     5.1000  1.0  P
TRC     8.5960  1.0  S
KOC     3.8960  1.0  P
KOC     6.5320  1.0  S
LAC     3.3520  1.0  P
LAC     5.6720  1.0  S
# 2018  6 15 12 20 44.510000  50.2518 12.4516 9.735  2.0  0.0 0.0 0.0   201874528
NKC     1.8300  1.0  P
NKC     3.0220  1.0  S
STC     1.9500  1.0  P
STC     3.2020  1.0  S
VAC     1.9820  1.0  P
VAC     3.2940  1.0  S
POC     2.2580  1.0  P
POC     3.8020  1.0  S
SKC     2.6100  1.0  P
SKC     4.3860  1.0  S
LBC     1.8860  1.0  P
LBC     3.2100  1.0  S
KVC     2.1220  1.0  P
KVC     3.5060  1.0  S
KRC     2.4540  1.0  P
KRC     4.1220  1.0  S
ZHC     4.2940  1.0  P
ZHC     7.1220  1.0  S
TRC     4.1460  1.0  P
TRC     6.9540  1.0  S
LAC     4.8940  1.0  P
LAC     8.2660  1.0  S
# 2018  5 16 12 30  8.400000  50.1549 12.4653 9.347  2.4  0.0 0.0 0.0   201847691
NKC     2.3520  1.0  P
NKC     3.9760  1.0  S
STC     2.7120  1.0  P
STC     4.5680  1.0  S
VAC     2.5840  1.0  P
VAC     4.3480  1.0  S
POC     3.6840  1.0  P
POC     6.1440  1.0  S
SKC     2.1480  1.0  P
SKC     3.6560  1.0  S
LBC     2.8760  1.0  P
LBC     4.9240  1.0  S
KVC     2.0560  1.0  P
KVC     3.4560  1.0  S
KRC     3.8240  1.0  P
KRC     6.4640  1.0  S
HUC     2.5920  1.0  P
HUC     4.3160  1.0  S
MAC     2.0120  1.0  P
MAC     3.4080  1.0  S
ZHC     3.0360  1.0  P
ZHC     5.0600  1.0  S
TRC     5.1080  1.0  P
TRC     8.6080  1.0  S
KOC     3.9000  1.0  P
KOC     6.5440  1.0  S
LAC     3.3560  1.0  P
LAC     5.6240  1.0  S
# 2018  6 14 22  6 45.960000  50.2522 12.451 9.86  2.1  0.0 0.0 0.0   201874434
NKC     1.8600  1.0  P
NKC     3.0640  1.0  S
STC     1.9760  1.0  P
STC     3.2520  1.0  S
POC     2.2720  1.0  P
POC     3.8320  1.0  S
SKC     2.6320  1.0  P
SKC     4.4160  1.0  S
LBC     1.9080  1.0  P
LBC     3.2600  1.0  S
KVC     2.1520  1.0  P
KVC     3.5480  1.0  S
KRC     2.4760  1.0  P
KRC     4.1520  1.0  S
ZHC     4.3120  1.0  P
ZHC     7.1680  1.0  S
TRC     4.1520  1.0  P
TRC     6.9720  1.0  S
LAC     4.9200  1.0  P
LAC     8.3520  1.0  S
# 2018  6  1  4 46 45.009999  50.2312 12.4606 6.433  2.5  0.0 0.0 0.0   201869746
NKC     1.3180  1.0  P
NKC     2.1020  1.0  S
STC     1.5700  1.0  P
STC     2.5100  1.0  S
VAC     1.6700  1.0  P
VAC     2.7140  1.0  S
POC     2.2620  1.0  P
POC     3.6980  1.0  S
SKC     2.1940  1.0  P
SKC     3.6460  1.0  S
LBC     1.6300  1.0  P
LBC     2.7500  1.0  S
KVC     1.5180  1.0  P
KVC     2.4620  1.0  S
KRC     2.4780  1.0  P
KRC     4.0300  1.0  S
ZHC     3.9340  1.0  P
ZHC     6.5100  1.0  S
KOC     3.1700  1.0  P
KOC     5.1980  1.0  S
LAC     4.4260  1.0  P
LAC     7.3620  1.0  S
# 2018  5 25 13 44 22.430000  50.2518 12.4498 9.297  2.8  0.0 0.0 0.0   201866311
NKC     1.7660  1.0  P
NKC     2.9020  1.0  S
VAC     1.9180  1.0  P
VAC     3.1900  1.0  S
POC     2.2140  1.0  P
POC     3.6900  1.0  S
SKC     2.5580  1.0  P
SKC     4.3020  1.0  S
LBC     1.8140  1.0  P
LBC     3.0980  1.0  S
KVC     2.0820  1.0  P
KVC     3.4380  1.0  S
KRC     2.4260  1.0  P
KRC     4.0660  1.0  S
HUC     3.6980  1.0  P
HUC     6.2740  1.0  S
MAC     2.9820  1.0  P
MAC     5.0060  1.0  S
ZHC     4.2700  1.0  P
ZHC     7.1580  1.0  S
KOC     3.0860  1.0  P
KOC     5.1500  1.0  S
LAC     4.8900  1.0  P
LAC     8.1740  1.0  S
# 2018  5 19  2  6 10.080000  50.1586 12.4648 9.121  2.3  0.0 0.0 0.0   201852116
NKC     2.2960  1.0  P
NKC     3.8680  1.0  S
STC     2.6720  1.0  P
STC     4.4640  1.0  S
VAC     2.5360  1.0  P
VAC     4.2600  1.0  S
POC     3.6200  1.0  P
POC     6.0360  1.0  S
SKC     2.1240  1.0  P
SKC     3.5960  1.0  S
LBC     2.8120  1.0  P
LBC     4.8200  1.0  S
KVC     2.0080  1.0  P
KVC     3.3680  1.0  S
KRC     3.7680  1.0  P
KRC     6.3760  1.0  S
HUC     2.6120  1.0  P
HUC     4.3440  1.0  S
MAC     2.0000  1.0  P
MAC     3.3880  1.0  S
ZHC     3.0600  1.0  P
ZHC     5.1000  1.0  S
TRC     5.0760  1.0  P
TRC     8.5760  1.0  S
KOC     3.8680  1.0  P
KOC     6.5080  1.0  S
LAC     3.3960  1.0  P
LAC     5.7360  1.0  S
# 2018  6  8 15 44 26.990000  50.2556 12.451 9.99  1.9  0.0 0.0 0.0   201872635
NKC     1.8740  1.0  P
NKC     3.1060  1.0  S
STC     1.9780  1.0  P
STC     3.2540  1.0  S
VAC     2.0180  1.0  P
VAC     3.3580  1.0  S
POC     2.2340  1.0  P
POC     3.7900  1.0  S
SKC     2.6620  1.0  P
SKC     4.5100  1.0  S
LBC     1.9060  1.0  P
LBC     3.2300  1.0  S
KVC     2.1820  1.0  P
KVC     3.6020  1.0  S
KRC     2.4340  1.0  P
KRC     4.0900  1.0  S
ZHC     4.3460  1.0  P
ZHC     7.2460  1.0  S
TRC     4.1220  1.0  P
TRC     6.9060  1.0  S
KOC     3.1260  1.0  P
KOC     5.2180  1.0  S
LAC     4.9580  1.0  P
LAC     8.3340  1.0  S
# 2018  5 14  0 43 53.740000  50.2703 12.4399 9.682  3.3  0.0 0.0 0.0   201837218
NKC     1.9160  1.0  P
NKC     3.1760  1.0  S
STC     1.9960  1.0  P
STC     3.2840  1.0  S
VAC     1.9880  1.0  P
VAC     3.3160  1.0  S
POC     2.0360  1.0  P
POC     3.4640  1.0  S
SKC     2.7560  1.0  P
SKC     4.6560  1.0  S
LBC     1.8280  1.0  P
LBC     3.0680  1.0  S
KVC     2.3440  1.0  P
KVC     3.8760  1.0  S
KRC     2.3200  1.0  P
KRC     3.8960  1.0  S
HUC     3.9320  1.0  P
HUC     6.6520  1.0  S
MAC     3.2920  1.0  P
MAC     5.5440  1.0  S
ZHC     4.4960  1.0  P
ZHC     7.5280  1.0  S
TRC     3.9280  1.0  P
TRC     6.6040  1.0  S
KOC     2.9920  1.0  P
KOC     4.9920  1.0  S
LAC     5.2120  1.0  P
LAC     8.7400  1.0  S
# 2018  5 22 22  2 33.440000  50.2326 12.4569 6.797  3.0  0.0 0.0 0.0   201862744
NKC     1.3800  1.0  P
NKC     2.2320  1.0  S
STC     1.6360  1.0  P
STC     2.6320  1.0  S
VAC     1.6920  1.0  P
VAC     2.7560  1.0  S
POC     2.2760  1.0  P
POC     3.7160  1.0  S
SKC     2.2240  1.0  P
SKC     3.6880  1.0  S
LBC     1.6560  1.0  P
LBC     2.7840  1.0  S
KVC     1.6080  1.0  P
KVC     2.6000  1.0  S
KRC     2.5080  1.0  P
KRC     4.0960  1.0  S
HUC     3.3680  1.0  P
HUC     5.6200  1.0  S
MAC     2.5280  1.0  P
MAC     4.1920  1.0  S
ZHC     3.9680  1.0  P
ZHC     6.5720  1.0  S
TRC     4.3280  1.0  P
TRC     7.2240  1.0  S
KOC     3.1560  1.0  P
KOC     5.1760  1.0  S
LAC     4.4920  1.0  P
LAC     7.4920  1.0  S
# 2018  5 14  1 54 34.609999  50.267 12.4389 10.201  3.5  0.0 0.0 0.0   201835040
NKC     1.9500  1.0  P
NKC     3.2500  1.0  S
STC     2.0660  1.0  P
STC     3.3980  1.0  S
VAC     2.0420  1.0  P
VAC     3.3900  1.0  S
POC     2.1300  1.0  P
POC     3.6300  1.0  S
SKC     2.7460  1.0  P
SKC     4.6580  1.0  S
LBC     1.8860  1.0  P
LBC     3.1820  1.0  S
KVC     2.3580  1.0  P
KVC     3.9100  1.0  S
KRC     2.4060  1.0  P
KRC     4.0380  1.0  S
HUC     3.9100  1.0  P
HUC     6.6140  1.0  S
MAC     3.3060  1.0  P
MAC     5.5300  1.0  S
ZHC     4.4580  1.0  P
ZHC     7.5140  1.0  S
TRC     3.9780  1.0  P
TRC     6.6500  1.0  S
KOC     3.0140  1.0  P
KOC     5.0300  1.0  S
LAC     5.1940  1.0  P
LAC     8.7060  1.0  S
# 2018  5 14 10  4 35.700000  50.2695 12.4385 10.157  3.2  0.0 0.0 0.0   201838074
NKC     1.9720  1.0  P
NKC     3.2640  1.0  S
STC     2.0680  1.0  P
STC     3.4000  1.0  S
VAC     2.0440  1.0  P
VAC     3.4040  1.0  S
POC     2.1080  1.0  P
POC     3.5880  1.0  S
SKC     2.7840  1.0  P
SKC     4.6920  1.0  S
LBC     1.8920  1.0  P
LBC     3.1760  1.0  S
KVC     2.3840  1.0  P
KVC     3.9520  1.0  S
KRC     2.3760  1.0  P
KRC     4.0520  1.0  S
HUC     3.9440  1.0  P
HUC     6.6680  1.0  S
MAC     3.3200  1.0  P
MAC     5.6000  1.0  S
ZHC     4.4960  1.0  P
ZHC     7.5720  1.0  S
TRC     3.9440  1.0  P
TRC     6.6080  1.0  S
KOC     3.0120  1.0  P
KOC     5.0280  1.0  S
LAC     5.2320  1.0  P
LAC     8.7960  1.0  S
# 2018  5 21 21  4 43.340000  50.2394 12.4524 7.238  3.8  0.0 0.0 0.0   201856087
NKC     1.4440  1.0  P
NKC     2.3560  1.0  S
STC     1.6880  1.0  P
STC     2.6710  1.0  S
VAC     1.7120  1.0  P
VAC     2.7680  1.0  S
POC     2.1920  1.0  P
POC     3.5880  1.0  S
SKC     2.2960  1.0  P
SKC     3.8470  1.0  S
LBC     1.6320  1.0  P
LBC     2.7680  1.0  S
KVC     1.7440  1.0  P
KVC     2.8120  1.0  S
KRC     2.4560  1.0  P
KRC     3.9840  1.0  S
HUC     3.4520  1.0  P
HUC     5.7760  1.0  S
MAC     2.7000  1.0  P
MAC     4.4360  1.0  S
ZHC     4.0520  1.0  P
ZHC     6.7200  1.0  S
TRC     4.2400  1.0  P
TRC     7.0560  1.0  S
KOC     3.0920  1.0  P
KOC     5.0840  1.0  S
LAC     4.6360  1.0  P
LAC     7.7360  1.0  S
# 2018  5 18 12 22 35.680000  50.1565 12.4654 9.225  3.1  0.0 0.0 0.0   201851461
NKC     2.3240  1.0  P
NKC     3.9280  1.0  S
STC     2.7080  1.0  P
STC     4.5240  1.0  S
VAC     2.5640  1.0  P
VAC     4.3320  1.0  S
POC     3.6680  1.0  P
POC     6.0960  1.0  S
SKC     2.1360  1.0  P
SKC     3.6320  1.0  S
LBC     2.8480  1.0  P
LBC     4.8720  1.0  S
KVC     2.0280  1.0  P
KVC     3.4080  1.0  S
KRC     3.7960  1.0  P
KRC     6.4240  1.0  S
HUC     2.5920  1.0  P
HUC     4.3400  1.0  S
MAC     2.0000  1.0  P
MAC     3.4000  1.0  S
ZHC     3.0480  1.0  P
ZHC     5.1520  1.0  S
TRC     5.1000  1.0  P
TRC     8.6520  1.0  S
KOC     3.8840  1.0  P
KOC     6.5160  1.0  S
LAC     3.3680  1.0  P
LAC     5.7120  1.0  S
